STARLINK-1673_new
1 16327C 20062C   21326.12760198  .00010616  00000-0  71146-3 0  3260
2 16327  53.0528 218.1775 0001867  70.2846  84.4532 15.06377614    14
STARLINK-1673_old
1 26327C 20062C   21325.17813581  .00006589  00000-0  44137-3 0  3252
2 26327  53.0530 222.4398 0001902  71.4800 331.3903 15.06399601    15
